STARLINK-3386           
1 51126U 22005Y   22035.58335648 -.00818821  00000+0 -58754-2 0  9998
2 51126  53.2176 192.6156 0001303  56.6968 203.9159 15.75240582  3076
STARLINK-3370           
1 51127U 22005Z   22035.58335648 -.00818796  00000+0 -58730-2 0  9994
2 51127  53.2176 192.6145 0001350  53.4771 207.7320 15.75248680  3039
STARLINK-3400           
1 51128U 22005AA  22035.58335648 -.00819334  00000+0 -58581-2 0  9998
2 51128  53.2176 192.6059 0001391  49.3163 215.9921 15.75322399  3070
STARLINK-3396           
1 51129U 22005AB  22031.66668981 -.00521081  97246-4 -14129-2 0  9995
2 51129  53.2183 211.6096 0021034 223.4792 356.4534 15.93026100  2454
STARLINK-3395           
1 51130U 22005AC  22035.58335648 -.00818942  00000+0 -58690-2 0  9996
2 51130  53.2176 192.6121 0001309  56.1487 206.2361 15.75268952  3072
STARLINK-3388           
1 51131U 22005AD  22035.58335648 -.00819151  00000+0 -58615-2 0  9997
2 51131  53.2176 192.6083 0001291  57.1451 206.9796 15.75304530  3074
STARLINK-3393           
1 51132U 22005AE  22035.58335648 -.00819297  00000+0 -58659-2 0  9997
2 51132  53.2176 192.6096 0001431  46.6337 216.9201 15.75290692  3076
STARLINK-3356           
1 51133U 22005AF  22035.58335648 -.00820103  00000+0 -58609-2 0  9991
2 51133  53.2176 192.6047 0001449  46.3561 219.5326 15.75334425  3124
STARLINK-3183           
1 51134U 22005AG  22034.08334491 -.00743534  00000+0 -35304-2 0  9990
2 51134  53.2173 199.5923 0001682  32.3854 222.9108 15.84029855  2853
STARLINK-3363           
1 51135U 22005AH  22035.58335648 -.00819450  00000+0 -58535-2 0  9994
2 51135  53.2176 192.6035 0001395  49.7554 216.7211 15.75343715  3070
STARLINK-3253           
1 51136U 22005AJ  22035.58335648 -.00590411  12148-3 -15238-2 0  9991
2 51136  53.2176 191.7273 0027097 230.1503 111.0240 15.93698556  3932
STARLINK-3180           
1 51137U 22005AK  22035.58335648 -.00690061  00000+0 -48665-2 0  9994
2 51137  53.2184 192.6001 0001230  68.4086 200.4660 15.75284241  3920
STARLINK-3177           
1 51138U 22005AL  22035.58335648 -.00819162  00000+0 -58490-2 0  9997
2 51138  53.2176 192.6024 0001375  49.5955 217.4715 15.75352583  3926
STARLINK-3172           
1 51139U 22005AM  22035.58335648 -.00686731  00000+0 -48368-2 0  9995
2 51139  53.2185 192.5978 0001228  69.4608 200.5753 15.75304446  3084
STARLINK-3175           
1 51140U 22005AN  22035.58335648 -.00819553  00000+0 -58461-2 0  9992
2 51140  53.2176 192.5999 0001449  46.2765 221.9527 15.75375070  3921
STARLINK-3179           
1 51141U 22005AP  22035.58335648 -.00683690  00000+0 -48088-2 0  9998
2 51141  53.2184 192.5952 0001211  71.1174 200.0659 15.75327425  3923
STARLINK-3369           
1 51142U 22005AQ  22035.58335648 -.00819405  00000+0 -58477-2 0  9997
2 51142  53.2176 192.6011 0001409  48.4435 219.2009 15.75364718  3071
STARLINK-3184           
1 51143U 22005AR  22035.58335648 -.00653201  00000+0 -45764-2 0  9993
2 51143  53.2183 192.5916 0001268  74.4199 198.5322 15.75333603  3922
STARLINK-3185           
1 51144U 22005AS  22035.58335648 -.00656453  00000+0 -46092-2 0  9991
2 51144  53.2185 192.5967 0001313  66.3896 204.2400 15.75292607  3926
STARLINK-3365           
1 51145U 22005AT  22035.58335648 -.00820025  00000+0 -58243-2 0  9991
2 51145  53.2176 192.5890 0001489  43.0362 230.4184 15.75473781  3076
STARLINK-3354           
1 51146U 22005AU  22035.58335648 -.00819691  00000+0 -58409-2 0  9993
2 51146  53.2176 192.5975 0001475  43.8684 225.5139 15.75399216  3076
STARLINK-3352           
1 51147U 22005AV  22035.58335648 -.00819660  00000+0 -58281-2 0  9998
2 51147  53.2176 192.5914 0001336  53.3097 218.9968 15.75449261  3072
STARLINK-3359           
1 51148U 22005AW  22035.58335648 -.00819758  00000+0 -58207-2 0  9995
2 51148  53.2176 192.5878 0001249  60.0937 213.9535 15.75481785  3929
STARLINK-3360           
1 51149U 22005AX  22035.58335648 -.00819940  00000+0 -58192-2 0  9992
2 51149  53.2176 192.5866 0001437  46.2381 228.3940 15.75491527  3920
STARLINK-3357           
1 51150U 22005AY  22035.58335648 -.00819602  00000+0 -58300-2 0  9990
2 51150  53.2176 192.5928 0001371  50.9564 220.7629 15.75439797  3070
STARLINK-3361           
1 51151U 22005AZ  22035.58335648 -.00820033  00000+0 -58146-2 0  9999
2 51151  53.2176 192.5842 0001355  51.2079 224.5844 15.75512989  3923
STARLINK-3364           
1 51152U 22005BA  22035.58335648 -.00820072  00000+0 -58177-2 0  9997
2 51152  53.2176 192.5855 0001413  47.3555 227.8602 15.75501588  3075
L-SAR 01A               
1 51284U 22007A   22034.16019931 -.00000058  00000+0 -24407-6 0  9999
2 51284  97.8115  43.4362 0005900 221.7643 138.3143 14.89910999  1210
CZ-4C R/B               
1 51285U 22007B   22035.60624502  .00004973  00000+0  21776-3 0  9997
2 51285  97.8448  45.3298 0124837 358.9497   1.1454 15.15704079  1458
CZ-4C DEB               
1 51286U 22007C   22030.01818880  .00233604  00000+0  43185-1 0  9993
2 51286  97.8038  39.1328 0142443 199.7376 159.8326 14.57710056   599
ASCENT                  
1 51287U 21118E   22035.50453940 -.00000027  00000+0  00000+0 0  9996
2 51287   0.1295 114.2726 0001986 144.2275 279.3268  1.01234097   187
ELSA-D CLIENT           
1 51288U 21022AQ  22035.55539239  .00002972  00000+0  20188-3 0  9995
2 51288  97.5395 298.2007 0017389 230.2025 129.7672 15.07023260  1544
GASPACS                 
1 51439U 98067TB  22032.12147602  .00058112  00000+0  99171-3 0  9990
2 51439  51.6446 290.3932 0008615  94.3312 265.9243 15.50724425   905
1998-067TC              
1 51440U 98067TC  22032.31436521  .00083961  00000+0  14120-2 0  9994
2 51440  51.6433 289.4285 0008517  88.8247 271.4295 15.50977645   991
1998-067TD              
1 51441U 98067TD  22032.18609058  .00022648  00000+0  39623-3 0  9998
2 51441  51.6434 290.0722 0008937  96.5777 263.6310 15.50493879   967
1998-067TE              
1 51442U 98067TE  22032.12107052  .00022574  00000+0  39292-3 0  9990
2 51442  51.6438 290.3859 0008933 103.0832 257.1240 15.50641006   910
1998-067TF              
1 51443U 98067TF  22032.31366008  .00047227  00000+0  80019-3 0  9995
2 51443  51.6450 289.4234 0010302  87.9859 272.2652 15.50999061   904
CSG-2                   
1 51444U 22008A   22035.38337404 -.00000194  00000+0 -17742-4 0  9994
2 51444  97.8951 220.9783 0004727 133.9920 226.1694 14.82113212   507
